[{"OBJECT_NAME":"STARLINK-6222","OBJECT_ID":"2023-064AK","EPOCH":"2026-03-09T13:37:57.880128","MEAN_MOTION":14.98330013,"ECCENTRICITY":0.0003362,"INCLINATION":69.9995,"RA_OF_ASC_NODE":124.6626,"ARG_OF_PERICENTER":270.3889,"MEAN_ANOMALY":89.6885,"EPHEMERIS_TYPE":0,"CLASSIFICATION_TYPE":"U","NORAD_CAT_ID":56481,"ELEMENT_SET_NO":999,"REV_AT_EPOCH":15572,"BSTAR":6.9653e-5,"MEAN_MOTION_DOT":7.38e-6,"MEAN_MOTION_DDOT":0},{"OBJECT_NAME":"LEMUR-2-BALTO","OBJECT_ID":"2025-052BH","EPOCH":"2026-03-09T16:40:42.002112","MEAN_MOTION":14.98934076,"ECCENTRICITY":0.00022794,"INCLINATION":97.6978,"RA_OF_ASC_NODE":323.5166,"ARG_OF_PERICENTER":359.2852,"MEAN_ANOMALY":0.8367,"EPHEMERIS_TYPE":0,"CLASSIFICATION_TYPE":"U","NORAD_CAT_ID":63395,"ELEMENT_SET_NO":999,"REV_AT_EPOCH":5385,"BSTAR":0.00063455958,"MEAN_MOTION_DOT":7.621e-5,"MEAN_MOTION_DDOT":0}]
