STARLINK-6222           
1 56481U 23064AK  26068.56803102  .00000738  00000+0  69653-4 0  9996
2 56481  69.9995 124.6626 0003362 270.3889  89.6885 14.98330013155727
LEMUR-2-BALTO           
1 63395U 25052BH  26068.69493058  .00007621  00000+0  63456-3 0  9998
2 63395  97.6978 323.5166 0002279 359.2852   0.8367 14.98934076 53850
